OBJECT_NAME,OBJECT_ID,EPOCH,MEAN_MOTION,ECCENTRICITY,INCLINATION,RA_OF_ASC_NODE,ARG_OF_PERICENTER,MEAN_ANOMALY,EPHEMERIS_TYPE,CLASSIFICATION_TYPE,NORAD_CAT_ID,ELEMENT_SET_NO,REV_AT_EPOCH,BSTAR,MEAN_MOTION_DOT,MEAN_MOTION_DDOT
IRIDIUM 135,2017-083A,2026-07-12T08:06:43.244064,14.34217975,.00021835,86.3983,311.5017,94.1154,266.0292,0,U,43070,999,44775,.40048575E-4,.132E-5,0
IRIDIUM 138,2017-083B,2026-07-12T10:23:43.186272,14.34217931,.00020576,86.3998,311.1612,91.5205,268.6226,0,U,43071,999,44775,.38909428E-4,.129E-5,0
IRIDIUM 116,2017-083C,2026-07-12T07:57:35.036928,14.34217071,.00023912,86.3987,311.4902,99.4154,260.7312,0,U,43072,999,44777,.33074261E-4,.112E-5,0
IRIDIUM 130,2017-083D,2026-07-12T07:11:55.393152,14.34217176,.00021975,86.3992,311.7811,100.7123,259.4320,0,U,43073,999,44771,.37126943E-4,.124E-5,0
IRIDIUM 151,2017-083E,2026-07-12T06:35:23.243712,14.34217502,.0002229,86.3986,311.5721,95.3596,264.7854,0,U,43074,999,44773,.43955E-4,.143E-5,0
IRIDIUM 134,2017-083F,2026-07-12T05:49:43.205088,14.34218012,.0002189,86.3985,311.5937,95.4623,264.6823,0,U,43075,999,44769,.38332E-4,.127E-5,0
IRIDIUM 137,2017-083G,2026-07-12T07:48:27.336960,14.34217916,.00026523,86.3988,311.6527,94.3842,265.7656,0,U,43076,999,44777,.37638375E-4,.125E-5,0
IRIDIUM 141,2017-083H,2026-07-12T07:39:19.125504,14.34217557,.00021483,86.3984,311.4844,92.9824,267.1618,0,U,43077,999,44777,.42167597E-4,.138E-5,0
IRIDIUM 153,2017-083J,2026-07-12T04:49:59.411712,14.34217620,.00021114,86.3960,280.0134,94.2419,265.9018,0,U,43078,999,44886,.13325355E-4,.57E-6,0
IRIDIUM 131,2017-083K,2026-07-12T07:21:03.293568,14.34217498,.00022421,86.3990,311.6773,92.5209,267.6243,0,U,43079,999,44770,.6107978E-5,.37E-6,0
IRIDIUM 144,2018-030A,2026-07-12T04:59:07.436544,14.34217775,.00023666,86.3957,279.9393,98.3111,261.8353,0,U,43249,999,43372,.15410755E-4,.63E-6,0
IRIDIUM 149,2018-030B,2026-07-12T05:08:15.460512,14.34217781,.00022515,86.3958,279.9034,93.5504,266.5949,0,U,43250,999,43374,.36066291E-4,.121E-5,0
IRIDIUM 157,2018-030C,2026-07-12T05:35:39.652512,14.34217295,.00022434,86.3961,279.9493,94.1288,266.0164,0,U,43251,999,43372,.38710361E-4,.128E-5,0
IRIDIUM 140,2018-030D,2026-07-12T04:22:35.590368,14.34216889,.00022212,86.3960,279.9831,95.4317,264.7132,0,U,43252,999,43377,.45076341E-4,.146E-5,0
IRIDIUM 145,2018-030E,2026-07-12T04:04:19.284096,14.34217045,.00024584,86.3959,279.9602,100.7220,259.4253,0,U,43253,999,43370,.43038756E-4,.14E-5,0
IRIDIUM 146,2018-030F,2026-07-12T05:17:23.386848,14.34217078,.00022459,86.3959,279.9513,97.3084,262.8367,0,U,43254,999,43372,-.2604261E-5,.12E-6,0
IRIDIUM 148,2018-030G,2026-07-12T04:31:43.695552,14.34217343,.00023441,86.3962,280.0080,94.5825,265.5638,0,U,43255,999,43375,.46941025E-4,.151E-5,0
IRIDIUM 142,2018-030H,2026-07-12T05:26:31.473024,14.34217953,.00024039,86.3956,279.8804,97.9956,262.1513,0,U,43256,999,43372,.3824419E-4,.127E-5,0
IRIDIUM 150,2018-030J,2026-07-10T04:07:18.893280,14.34219143,.00022151,86.3963,280.8566,95.9860,264.1588,0,U,43257,999,43345,-.94435944E-4,-.245E-5,0
IRIDIUM 143,2018-030K,2026-07-12T04:13:27.460992,14.34217422,.00023174,86.3962,280.1121,96.6168,263.5291,0,U,43258,999,43367,.25134118E-4,.9E-6,0
IRIDIUM 161,2018-047C,2026-07-11T03:46:43.203072,14.43284936,.00023067,86.4467,78.4474,78.8180,281.3280,0,U,43478,999,42859,.45078032E-4,.172E-5,0
IRIDIUM 152,2018-047D,2026-07-12T03:34:10.623648,14.34219431,.00021383,86.3939,77.8940,82.7975,277.3464,0,U,43479,999,42606,.44307177E-4,.144E-5,0
IRIDIUM 147,2018-047E,2026-07-11T19:20:58.137216,14.34217175,.00022753,86.3941,78.0429,88.4643,271.6813,0,U,43480,999,42601,.4528695E-4,.147E-5,0
IRIDIUM 110,2018-047F,2026-07-12T02:11:58.331040,14.34217713,.00021736,86.3945,78.0162,76.6103,283.5335,0,U,43481,999,42604,.42044042E-4,.138E-5,0
IRIDIUM 162,2018-047G,2026-07-10T02:40:06.655296,14.43283456,.00021871,86.4467,78.7759,84.2783,275.8667,0,U,43482,999,42843,.50126108E-4,.189E-5,0
IRIDIUM 160,2018-061A,2026-07-12T14:17:42.290304,14.34216397,.00022269,86.3943,46.1695,86.1276,274.0175,0,U,43569,999,41701,.3100305E-4,.107E-5,0
IRIDIUM 166,2018-061B,2026-07-11T12:06:46.347840,14.34217869,.00022602,86.3940,46.5761,89.6407,270.5047,0,U,43570,999,41688,.3931712E-5,.31E-6,0
IRIDIUM 158,2018-061C,2026-07-12T14:08:34.484928,14.34217306,.00020575,86.3939,46.1321,86.3258,273.8173,0,U,43571,999,41700,.10629921E-4,.5E-6,0
IRIDIUM 165,2018-061D,2026-07-12T13:04:38.438976,14.34217303,.00022661,86.3942,46.1976,90.8182,269.3273,0,U,43572,999,41702,.25565263E-4,.91E-6,0
IRIDIUM 155,2018-061E,2026-07-12T13:50:18.447360,14.34217131,.00020914,86.3939,46.0523,88.8026,271.3410,0,U,43573,999,41699,.16789856E-4,.67E-6,0
